COSMOS 1892             
1 18421U 87088A   25316.70356850  .00476073  95160-4  98514-3 0  9990
2 18421  82.4665  77.6307 0006195 284.3459  75.7130 15.99136829 86500
SL-14 R/B               
1 18749U 88001B   25316.26286651  .00001198  00000+0  13624-3 0  9996
2 18749  82.5106 305.8184 0016466 266.5582  93.3751 14.85375323 24598
COSMOS 1933             
1 18958U 88020A   25316.60719527  .00008855  00000+0  44965-3 0  9999
2 18958  82.5160   6.6431 0003236 232.5337 127.5602 15.16766095 32479
SL-3 R/B                
1 19046U 88032B   25316.87905582  .00013453  00000+0  65352-3 0  9991
2 19046  97.5059 295.8206 0024920 282.2617  77.5826 15.18296813 34370
SL-16 R/B               
1 19120U 88039B   25316.72934639  .00000056  00000+0  49415-4 0  9998
2 19120  71.0143 315.8541 0021128 165.6588 194.5141 14.19589390941784
COSMOS 1953             
1 19210U 88050A   25316.29214937  .00012375  00000+0  47270-3 0  9998
2 19210  82.5074 276.1225 0012155 166.7330 193.4230 15.26436866 19869
SL-8 R/B                
1 19257U 88053B   25316.80374840  .00000577  00000+0  19580-3 0  9993
2 19257  74.0472 327.8951 0020049 181.5246 351.5354 14.38832978959784
COSMOS 1975             
1 19573U 88093A   25316.22668425  .00021200  00000+0  82689-3 0  9995
2 19573  82.5211 235.3552 0009906 217.5357 142.5191 15.25767930  1486
SL-14 R/B               
1 19574U 88093B   25316.79147527  .00000903  00000+0  10141-3 0  9994
2 19574  82.5297 151.7725 0022192  66.6239 304.3680 14.85503489983682
SL-16 R/B               
1 19650U 88102B   25316.29691404 -.00000093  00000+0 -23035-4 0  9992
2 19650  71.0011  38.4963 0014797 199.0763 160.9808 14.16130257910270
INTERCOSMOS 24          
1 20261U 89080A   25316.63160609  .00001118  00000+0  32907-3 0  9998
2 20261  82.6071 180.5304 1188091 204.3646 149.6588 12.59371069652064
SL-14 R/B               
1 20262U 89080C   25316.74058674  .00000554  00000+0  15739-3 0  9996
2 20262  82.5932 248.2714 1231267  92.1214 282.1007 12.50380342645533
