CCSDS_OMM_VERS = 2.0
CREATION_DATE  = 
ORIGINATOR     = 

OBJECT_NAME    = COSMOS 1892
OBJECT_ID      = 1987-088A
CENTER_NAME    = EARTH
REF_FRAME      = TEME
TIME_SYSTEM    = UTC
MEAN_ELEMENT_THEORY = SGP/SGP4

EPOCH          = 2025-11-12T16:53:08.318400
MEAN_MOTION    = 15.99136829
ECCENTRICITY   = .0006195
INCLINATION    = 82.4665
RA_OF_ASC_NODE = 77.6307
ARG_OF_PERICENTER = 284.3459
MEAN_ANOMALY   = 75.7130

EPHEMERIS_TYPE = 0
CLASSIFICATION_TYPE = U
NORAD_CAT_ID   = 18421
ELEMENT_SET_NO = 999
REV_AT_EPOCH   = 8650
BSTAR          = .98514E-3
MEAN_MOTION_DOT = .476073E-2
MEAN_MOTION_DDOT = .9516E-4

CCSDS_OMM_VERS = 2.0
CREATION_DATE  = 
ORIGINATOR     = 

OBJECT_NAME    = SL-14 R/B
OBJECT_ID      = 1988-001B
CENTER_NAME    = EARTH
REF_FRAME      = TEME
TIME_SYSTEM    = UTC
MEAN_ELEMENT_THEORY = SGP/SGP4

EPOCH          = 2025-11-12T06:18:31.666464
MEAN_MOTION    = 14.85375323
ECCENTRICITY   = .0016466
INCLINATION    = 82.5106
RA_OF_ASC_NODE = 305.8184
ARG_OF_PERICENTER = 266.5582
MEAN_ANOMALY   = 93.3751

EPHEMERIS_TYPE = 0
CLASSIFICATION_TYPE = U
NORAD_CAT_ID   = 18749
ELEMENT_SET_NO = 999
REV_AT_EPOCH   = 2459
BSTAR          = .136243E-3
MEAN_MOTION_DOT = .1198E-4
MEAN_MOTION_DDOT = 0

CCSDS_OMM_VERS = 2.0
CREATION_DATE  = 
ORIGINATOR     = 

OBJECT_NAME    = COSMOS 1933
OBJECT_ID      = 1988-020A
CENTER_NAME    = EARTH
REF_FRAME      = TEME
TIME_SYSTEM    = UTC
MEAN_ELEMENT_THEORY = SGP/SGP4

EPOCH          = 2025-11-12T14:34:21.671328
MEAN_MOTION    = 15.16766095
ECCENTRICITY   = .0003236
INCLINATION    = 82.5160
RA_OF_ASC_NODE = 6.6431
ARG_OF_PERICENTER = 232.5337
MEAN_ANOMALY   = 127.5602

EPHEMERIS_TYPE = 0
CLASSIFICATION_TYPE = U
NORAD_CAT_ID   = 18958
ELEMENT_SET_NO = 999
REV_AT_EPOCH   = 3247
BSTAR          = .44965E-3
MEAN_MOTION_DOT = .8855E-4
MEAN_MOTION_DDOT = 0

CCSDS_OMM_VERS = 2.0
CREATION_DATE  = 
ORIGINATOR     = 

OBJECT_NAME    = SL-3 R/B
OBJECT_ID      = 1988-032B
CENTER_NAME    = EARTH
REF_FRAME      = TEME
TIME_SYSTEM    = UTC
MEAN_ELEMENT_THEORY = SGP/SGP4

EPOCH          = 2025-11-12T21:05:50.422848
MEAN_MOTION    = 15.18296813
ECCENTRICITY   = .002492
INCLINATION    = 97.5059
RA_OF_ASC_NODE = 295.8206
ARG_OF_PERICENTER = 282.2617
MEAN_ANOMALY   = 77.5826

EPHEMERIS_TYPE = 0
CLASSIFICATION_TYPE = U
NORAD_CAT_ID   = 19046
ELEMENT_SET_NO = 999
REV_AT_EPOCH   = 3437
BSTAR          = .65352E-3
MEAN_MOTION_DOT = .13453E-3
MEAN_MOTION_DDOT = 0

CCSDS_OMM_VERS = 2.0
CREATION_DATE  = 
ORIGINATOR     = 

OBJECT_NAME    = SL-16 R/B
OBJECT_ID      = 1988-039B
CENTER_NAME    = EARTH
REF_FRAME      = TEME
TIME_SYSTEM    = UTC
MEAN_ELEMENT_THEORY = SGP/SGP4

EPOCH          = 2025-11-12T17:30:15.528096
MEAN_MOTION    = 14.19589390
ECCENTRICITY   = .0021128
INCLINATION    = 71.0143
RA_OF_ASC_NODE = 315.8541
ARG_OF_PERICENTER = 165.6588
MEAN_ANOMALY   = 194.5141

EPHEMERIS_TYPE = 0
CLASSIFICATION_TYPE = U
NORAD_CAT_ID   = 19120
ELEMENT_SET_NO = 999
REV_AT_EPOCH   = 94178
BSTAR          = .49415E-4
MEAN_MOTION_DOT = .56E-6
MEAN_MOTION_DDOT = 0

CCSDS_OMM_VERS = 2.0
CREATION_DATE  = 
ORIGINATOR     = 

OBJECT_NAME    = COSMOS 1953
OBJECT_ID      = 1988-050A
CENTER_NAME    = EARTH
REF_FRAME      = TEME
TIME_SYSTEM    = UTC
MEAN_ELEMENT_THEORY = SGP/SGP4

EPOCH          = 2025-11-12T07:00:41.705568
MEAN_MOTION    = 15.26436866
ECCENTRICITY   = .00121555
INCLINATION    = 82.5074
RA_OF_ASC_NODE = 276.1225
ARG_OF_PERICENTER = 166.7330
MEAN_ANOMALY   = 193.4230

EPHEMERIS_TYPE = 0
CLASSIFICATION_TYPE = U
NORAD_CAT_ID   = 19210
ELEMENT_SET_NO = 999
REV_AT_EPOCH   = 1986
BSTAR          = .47269865E-3
MEAN_MOTION_DOT = .12375E-3
MEAN_MOTION_DDOT = 0

CCSDS_OMM_VERS = 2.0
CREATION_DATE  = 
ORIGINATOR     = 

OBJECT_NAME    = SL-8 R/B
OBJECT_ID      = 1988-053B
CENTER_NAME    = EARTH
REF_FRAME      = TEME
TIME_SYSTEM    = UTC
MEAN_ELEMENT_THEORY = SGP/SGP4

EPOCH          = 2025-11-12T19:17:23.861760
MEAN_MOTION    = 14.38832978
ECCENTRICITY   = .0020049
INCLINATION    = 74.0472
RA_OF_ASC_NODE = 327.8951
ARG_OF_PERICENTER = 181.5246
MEAN_ANOMALY   = 351.5354

EPHEMERIS_TYPE = 0
CLASSIFICATION_TYPE = U
NORAD_CAT_ID   = 19257
ELEMENT_SET_NO = 999
REV_AT_EPOCH   = 95978
BSTAR          = .1958E-3
MEAN_MOTION_DOT = .577E-5
MEAN_MOTION_DDOT = 0

CCSDS_OMM_VERS = 2.0
CREATION_DATE  = 
ORIGINATOR     = 

OBJECT_NAME    = COSMOS 1975
OBJECT_ID      = 1988-093A
CENTER_NAME    = EARTH
REF_FRAME      = TEME
TIME_SYSTEM    = UTC
MEAN_ELEMENT_THEORY = SGP/SGP4

EPOCH          = 2025-11-12T05:26:25.519200
MEAN_MOTION    = 15.25767930
ECCENTRICITY   = .00099061
INCLINATION    = 82.5211
RA_OF_ASC_NODE = 235.3552
ARG_OF_PERICENTER = 217.5357
MEAN_ANOMALY   = 142.5191

EPHEMERIS_TYPE = 0
CLASSIFICATION_TYPE = U
NORAD_CAT_ID   = 19573
ELEMENT_SET_NO = 999
REV_AT_EPOCH   = 148
BSTAR          = .82688741E-3
MEAN_MOTION_DOT = .212E-3
MEAN_MOTION_DDOT = 0

CCSDS_OMM_VERS = 2.0
CREATION_DATE  = 
ORIGINATOR     = 

OBJECT_NAME    = SL-14 R/B
OBJECT_ID      = 1988-093B
CENTER_NAME    = EARTH
REF_FRAME      = TEME
TIME_SYSTEM    = UTC
MEAN_ELEMENT_THEORY = SGP/SGP4

EPOCH          = 2025-11-12T18:59:43.463328
MEAN_MOTION    = 14.85503489
ECCENTRICITY   = .0022192
INCLINATION    = 82.5297
RA_OF_ASC_NODE = 151.7725
ARG_OF_PERICENTER = 66.6239
MEAN_ANOMALY   = 304.3680

EPHEMERIS_TYPE = 0
CLASSIFICATION_TYPE = U
NORAD_CAT_ID   = 19574
ELEMENT_SET_NO = 999
REV_AT_EPOCH   = 98368
BSTAR          = .10141E-3
MEAN_MOTION_DOT = .903E-5
MEAN_MOTION_DDOT = 0

CCSDS_OMM_VERS = 2.0
CREATION_DATE  = 
ORIGINATOR     = 

OBJECT_NAME    = SL-16 R/B
OBJECT_ID      = 1988-102B
CENTER_NAME    = EARTH
REF_FRAME      = TEME
TIME_SYSTEM    = UTC
MEAN_ELEMENT_THEORY = SGP/SGP4

EPOCH          = 2025-11-12T07:07:33.373056
MEAN_MOTION    = 14.16130257
ECCENTRICITY   = .00147977
INCLINATION    = 71.0011
RA_OF_ASC_NODE = 38.4963
ARG_OF_PERICENTER = 199.0763
MEAN_ANOMALY   = 160.9808

EPHEMERIS_TYPE = 0
CLASSIFICATION_TYPE = U
NORAD_CAT_ID   = 19650
ELEMENT_SET_NO = 999
REV_AT_EPOCH   = 91027
BSTAR          = -.23034553E-4
MEAN_MOTION_DOT = -.93E-6
MEAN_MOTION_DDOT = 0

CCSDS_OMM_VERS = 2.0
CREATION_DATE  = 
ORIGINATOR     = 

OBJECT_NAME    = INTERCOSMOS 24
OBJECT_ID      = 1989-080A
CENTER_NAME    = EARTH
REF_FRAME      = TEME
TIME_SYSTEM    = UTC
MEAN_ELEMENT_THEORY = SGP/SGP4

EPOCH          = 2025-11-12T15:09:30.766176
MEAN_MOTION    = 12.59371069
ECCENTRICITY   = .1188091
INCLINATION    = 82.6071
RA_OF_ASC_NODE = 180.5304
ARG_OF_PERICENTER = 204.3646
MEAN_ANOMALY   = 149.6588

EPHEMERIS_TYPE = 0
CLASSIFICATION_TYPE = U
NORAD_CAT_ID   = 20261
ELEMENT_SET_NO = 999
REV_AT_EPOCH   = 65206
BSTAR          = .32907E-3
MEAN_MOTION_DOT = .1118E-4
MEAN_MOTION_DDOT = 0

CCSDS_OMM_VERS = 2.0
CREATION_DATE  = 
ORIGINATOR     = 

OBJECT_NAME    = SL-14 R/B
OBJECT_ID      = 1989-080C
CENTER_NAME    = EARTH
REF_FRAME      = TEME
TIME_SYSTEM    = UTC
MEAN_ELEMENT_THEORY = SGP/SGP4

EPOCH          = 2025-11-12T17:46:26.694336
MEAN_MOTION    = 12.50380342
ECCENTRICITY   = .1231267
INCLINATION    = 82.5932
RA_OF_ASC_NODE = 248.2714
ARG_OF_PERICENTER = 92.1214
MEAN_ANOMALY   = 282.1007

EPHEMERIS_TYPE = 0
CLASSIFICATION_TYPE = U
NORAD_CAT_ID   = 20262
ELEMENT_SET_NO = 999
REV_AT_EPOCH   = 64553
BSTAR          = .15739E-3
MEAN_MOTION_DOT = .554E-5
MEAN_MOTION_DDOT = 0

